{
    "links": {
        "self": "http://www.neowsapp.com/rest/v1/neo/54016920?api_key=iIulBulltgU6a56xZRHN4H3l9WmuAYTsLGpBGhQ2"
    },
    "id": "54016920",
    "neo_reference_id": "54016920",
    "name": "(2020 HU9)",
    "designation": "2020 HU9",
    "nasa_jpl_url": "http://ssd.jpl.nasa.gov/sbdb.cgi?sstr=54016920",
    "absolute_magnitude_h": 24.745,
    "estimated_diameter": {
        "kilometers": {
            "estimated_diameter_min": 0.0298920002,
            "estimated_diameter_max": 0.0668405444
        },
        "meters": {
            "estimated_diameter_min": 29.892000208,
            "estimated_diameter_max": 66.8405444486
        },
        "miles": {
            "estimated_diameter_min": 0.0185740221,
            "estimated_diameter_max": 0.0415327759
        },
        "feet": {
            "estimated_diameter_min": 98.0708699625,
            "estimated_diameter_max": 219.2931318488
        }
    },
    "is_potentially_hazardous_asteroid": false,
    "close_approach_data": [
        {
            "close_approach_date": "2020-05-04",
            "close_approach_date_full": "2020-May-04 12:51",
            "epoch_date_close_approach": 1588596660000,
            "relative_velocity": {
                "kilometers_per_second": "17.1569148831",
                "kilometers_per_hour": "61764.8935791218",
                "miles_per_hour": "38378.3029019827"
            },
            "miss_distance": {
                "astronomical": "0.0430351117",
                "lunar": "16.7406584513",
                "kilometers": "6437961.045532079",
                "miles": "4000363.4943735302"
            },
            "orbiting_body": "Earth"
        }
    ],
    "orbital_data": {
        "orbit_id": "2",
        "orbit_determination_date": "2020-05-02 06:49:27",
        "first_observation_date": "2020-04-25",
        "last_observation_date": "2020-05-02",
        "data_arc_in_days": 7,
        "observations_used": 34,
        "orbit_uncertainty": "8",
        "minimum_orbit_intersection": ".0396041",
        "jupiter_tisserand_invariant": "3.321",
        "epoch_osculation": "2458966.5",
        "eccentricity": ".6667434168677765",
        "semi_major_axis": "2.213633460661854",
        "inclination": "2.986677611494331",
        "ascending_node_longitude": "91.74553041748291",
        "orbital_period": "1202.976083457318",
        "perihelion_distance": ".7377079234073286",
        "perihelion_argument": "201.5503413702017",
        "aphelion_distance": "3.689558997916379",
        "perihelion_time": "2459017.450673200551",
        "mean_anomaly": "344.7526126209564",
        "mean_motion": ".2992578197941978",
        "equinox": "J2000",
        "orbit_class": {
            "orbit_class_type": "APO",
            "orbit_class_description": "Near-Earth asteroid orbits which cross the Earth’s orbit similar to that of 1862 Apollo",
            "orbit_class_range": "a (semi-major axis) > 1.0 AU; q (perihelion) < 1.017 AU"
        }
    },
    "is_sentry_object": false
}